OSCAR 7 (AO-7)          
1 07530U 74089B   26179.64623733 -.00000026  00000+0  12547-3 0  9992
2 07530 101.9899 193.0123 0012646 108.8638   8.4309 12.53698301361952
PHASE 3B (AO-10)        
1 14129U 83058B   26177.59526761 -.00000217  00000+0  00000+0 0  9994
2 14129  25.9202 218.0092 6007622 118.2548 314.1516  2.05872938295688
UOSAT 2 (UO-11)         
1 14781U 84021B   26179.49748480  .00001230  00000+0  13064-3 0  9997
2 14781  97.8063 144.9461 0008586 137.7568 222.4313 14.90810480258815
LUSAT (LO-19)           
1 20442U 90005G   26179.62402342  .00000109  00000+0  55609-4 0  9992
2 20442  98.8846 201.7446 0011782 167.3246 192.8236 14.34126405904036
EYESAT A (AO-27)        
1 22825U 93061C   26179.60722290  .00000085  00000+0  49416-4 0  9991
2 22825  98.6877 247.0164 0009449  70.3201 289.9000 14.30945069708632
ITAMSAT (IO-26)         
1 22826U 93061D   26179.44342206  .00000090  00000+0  50752-4 0  9990
2 22826  98.6825 246.7713 0009819  55.6021 304.6089 14.31372224708921
RADIO ROSTO (RS15)      
1 23439U 94085A   26179.55687388 -.00000044  00000+0 -43211-4 0  9996
2 23439  64.8176 284.8288 0156327   1.7770 358.3679 11.27583402297182
JAS-2 (FO-29)           
1 24278U 96046B   26179.54904671 -.00000019  00000+0  14056-4 0  9999
2 24278  98.5229  26.8641 0350869  67.0358 296.7398 13.53274843474703
TECHSAT 1B (GO-32)      
1 25397U 98043D   26179.58423380  .00000050  00000+0  41977-4 0  9994
2 25397  99.0072 172.6305 0001621 141.9335 218.1958 14.24430518452956
ISS (ZARYA)             
1 25544U 98067A   26179.54140602  .00005887  00000+0  11310-3 0  9993
2 25544  51.6322 243.8877 0004259 242.8085 117.2470 15.49467065573519
PCSAT (NO-44)           
1 26931U 01043C   26179.54409891  .00000092  00000+0  65165-4 0  9991
2 26931  67.0491 214.8978 0006039 265.3473  94.6939 14.31959587292079
SAUDISAT 1C (SO-50)     
1 27607U 02058C   26179.48384614  .00000884  00000+0  12164-3 0  9996
2 27607  64.5520  94.0340 0074995 260.3690  98.8938 14.83069301266134
CUTE-1 (CO-55)          
1 27844U 03031E   26179.48757997  .00000272  00000+0  13667-3 0  9999
2 27844  98.6736 187.9043 0010221 146.4668 213.7159 14.24342303193286
CUBESAT XI-IV (CO-57)   
1 27848U 03031J   26179.55199356  .00000229  00000+0  11941-3 0  9995
2 27848  98.6768 187.6716 0009707 163.9321 196.2167 14.23626546192990
MOZHAETS 4 (RS22)       
1 27939U 03042A   26179.62557623  .00001005  00000+0  16299-3 0  9995
2 27939  98.3468   4.3078 0010113 228.5620 219.2761 14.73486907217235
CUBESAT XI-V            
1 28895U 05043F   26179.40982496  .00001417  00000+0  23033-3 0  9997
2 28895  98.2995 335.2678 0014416 165.2148 194.9483 14.72660646103401
CUTE-1.7+APD II (CO-65) 
1 32785U 08021C   26179.58410836  .00004402  00000+0  27821-3 0  9998
2 32785  97.8271 161.2403 0008594   2.5543 357.5728 15.09555814986916
SEEDS II (CO-66)        
1 32791U 08021J   26179.49368697  .00016499  00000+0  51759-3 0  9998
2 32791  97.7514 177.9337 0000910 202.7139 157.4063 15.33128545989029
YUBILEINY (RS30)        
1 32953U 08025A   26179.60682442  .00000017  00000+0  49707-4 0  9992
2 32953  82.5042 348.3353 0018522 287.5516  72.3540 12.43179989821113
KKS-1 (KISEKI)          
1 33499U 09002H   26179.59082201  .00001242  00000+0  15915-3 0  9993
2 33499  98.1186 102.2138 0006418 250.5573 109.4947 14.83151291937880
SWISSCUBE               
1 35932U 09051B   26178.97854909  .00000952  00000+0  19747-3 0  9998
2 35932  98.4028  87.0546 0006746 167.8214 192.3151 14.62500860890738
BEESAT-1                
1 35933U 09051C   26179.47277339  .00000788  00000+0  16789-3 0  9991
2 35933  98.3955  87.1691 0004976 177.6025 182.5200 14.61737456890830
ITUPSAT1                
1 35935U 09051E   26179.54206212  .00000711  00000+0  15671-3 0  9998
2 35935  98.4040  86.4193 0006875 194.0038 166.0972 14.60456331890397
XIWANG-1 (HOPE-1)       
1 36122U 09072B   26179.56775130 -.00000464  00000+0 -10998-2 0  9995
2 36122 100.4024 133.2184 0007105 203.5787 156.5002 13.16437613794503
O/OREOS (USA 219)       
1 37224U 10062C   26179.37992310  .00002089  00000+0  20254-3 0  9990
2 37224  71.9713  54.9856 0012987  39.1216 321.0891 14.93789474118318
JUGNU                   
1 37839U 11058B   26179.53360106  .00000403  00000+0  70931-4 0  9994
2 37839  19.9595 239.4959 0018412 201.2516 297.0567 14.13779476760631
SRMSAT                  
1 37841U 11058D   26179.52740243  .00000375  00000+0  59605-4 0  9993
2 37841  19.9735 350.8310 0011741 329.1506  73.8720 14.11577807759424
STRAND-1                
1 39090U 13009E   26179.47396053  .00000276  00000+0  10710-3 0  9992
2 39090  98.3923 359.4306 0008368 189.1817 170.9218 14.37169747698681
ZACUBE-1 (TSHEPISOSAT)  
1 39417U 13066B   26179.47190809  .00002698  00000+0  21104-3 0  9998
2 39417  97.8045 141.8666 0042379 209.3723 150.5119 15.01247947682426
GOMX-1                  
1 39430U 13066Q   26179.62545140  .00001824  00000+0  27794-3 0  9993
2 39430  97.6480  19.3665 0129661  41.2345 319.8567 14.69498597671598
